[{"OBJECT_NAME":"ONEWEB-0452","OBJECT_ID":"2022-012Y","EPOCH":"2026-03-09T21:11:01.830912","MEAN_MOTION":13.17649937,"ECCENTRICITY":0.00015427,"INCLINATION":87.915,"RA_OF_ASC_NODE":25.599,"ARG_OF_PERICENTER":80.29,"MEAN_ANOMALY":279.8405,"EPHEMERIS_TYPE":0,"CLASSIFICATION_TYPE":"U","NORAD_CAT_ID":51644,"ELEMENT_SET_NO":999,"REV_AT_EPOCH":20059,"BSTAR":0.00017512116,"MEAN_MOTION_DOT":8.1e-7,"MEAN_MOTION_DDOT":0},{"OBJECT_NAME":"DELTA 1 DEB","OBJECT_ID":"1975-052JV","EPOCH":"2026-03-08T10:29:44.410848","MEAN_MOTION":13.40660442,"ECCENTRICITY":0.0110874,"INCLINATION":99.0097,"RA_OF_ASC_NODE":49.2224,"ARG_OF_PERICENTER":268.9438,"MEAN_ANOMALY":244.4381,"EPHEMERIS_TYPE":0,"CLASSIFICATION_TYPE":"U","NORAD_CAT_ID":21969,"ELEMENT_SET_NO":999,"REV_AT_EPOCH":68630,"BSTAR":0.0013952854,"MEAN_MOTION_DOT":7.57e-6,"MEAN_MOTION_DDOT":0}]
